{
  "links" : {
    "next" : "https://api.nasa.gov/neo/rest/v1/feed?start_date=2011-07-23&end_date=2011-07-23&detailed=true&api_key=t0TVs3DtDT2H8Oy2Zy8m2eVrNsAVKAexjcZXUckd",
    "prev" : "https://api.nasa.gov/neo/rest/v1/feed?start_date=2011-07-21&end_date=2011-07-21&detailed=true&api_key=t0TVs3DtDT2H8Oy2Zy8m2eVrNsAVKAexjcZXUckd",
    "self" : "https://api.nasa.gov/neo/rest/v1/feed?start_date=2011-07-22&end_date=2011-07-22&detailed=true&api_key=t0TVs3DtDT2H8Oy2Zy8m2eVrNsAVKAexjcZXUckd"
  },
  "element_count" : 7,
  "near_earth_objects" : {
    "2011-07-22" : [ {
      "links" : {
        "self" : "https://api.nasa.gov/neo/rest/v1/neo/3776854?api_key=t0TVs3DtDT2H8Oy2Zy8m2eVrNsAVKAexjcZXUckd"
      },
      "neo_reference_id" : "3776854",
      "name" : "(2017 NR6)",
      "nasa_jpl_url" : "http://ssd.jpl.nasa.gov/sbdb.cgi?sstr=3776854",
      "absolute_magnitude_h" : 22.07,
      "estimated_diameter" : {
        "kilometers" : {
          "estimated_diameter_min" : 0.1024601475,
          "estimated_diameter_max" : 0.2291078547
        },
        "meters" : {
          "estimated_diameter_min" : 102.4601474676,
          "estimated_diameter_max" : 229.1078547221
        },
        "miles" : {
          "estimated_diameter_min" : 0.0636657643,
          "estimated_diameter_max" : 0.1423609768
        },
        "feet" : {
          "estimated_diameter_min" : 336.1553502175,
          "estimated_diameter_max" : 751.6662140865
        }
      },
      "is_potentially_hazardous_asteroid" : false,
      "close_approach_data" : [ {
        "close_approach_date" : "2011-07-22",
        "epoch_date_close_approach" : 1311318000000,
        "relative_velocity" : {
          "kilometers_per_second" : "18.8205487099",
          "kilometers_per_hour" : "67753.9753557664",
          "miles_per_hour" : "42099.6854092538"
        },
        "miss_distance" : {
          "astronomical" : "0.142639147",
          "lunar" : "55.4866256714",
          "kilometers" : "21338512",
          "miles" : "13259137"
        },
        "orbiting_body" : "Earth"
      } ],
      "orbital_data" : {
        "orbit_id" : "6",
        "orbit_determination_date" : "2017-08-16 06:21:14",
        "orbit_uncertainty" : "7",
        "minimum_orbit_intersection" : ".00621718",
        "jupiter_tisserand_invariant" : "4.814",
        "epoch_osculation" : "2458000.5",
        "eccentricity" : ".4924664671465218",
        "semi_major_axis" : "1.32063461425402",
        "inclination" : "4.925754167447995",
        "ascending_node_longitude" : "130.3329176913392",
        "orbital_period" : "554.3351796414057",
        "perihelion_distance" : ".6702663513809332",
        "perihelion_argument" : "267.5443463450387",
        "aphelion_distance" : "1.971002877127107",
        "perihelion_time" : "2458037.559078714647",
        "mean_anomaly" : "335.9328492449218",
        "mean_motion" : ".6494265802016762",
        "equinox" : "J2000"
      }
    } ]
  }
}